STARLINK-31615          
1 59413U 24064R   24105.50001157 -.01328984  00000+0 -83065-2 0  9999
2 59413  43.0037  53.0078 0001737 271.8097 247.1345 15.78465112  2633
STARLINK-31457          
1 59414U 24064S   24105.50001157 -.01335208  00000+0 -83420-2 0  9992
2 59414  43.0035  53.0031 0001530 273.0845 247.7991 15.78488276  2636
STARLINK-31398          
1 59415U 24064T   24105.50001157 -.01344525  00000+0 -84022-2 0  9994
2 59415  43.0034  52.9982 0001647 270.4574 252.4632 15.78499927  2638
STARLINK-31399          
1 59416U 24064U   24105.50001157 -.01354544  00000+0 -84682-2 0  9999
2 59416  43.0031  52.9931 0001670 261.7155 263.2560 15.78510362  2631
STARLINK-31401          
1 59417U 24064V   24105.50001157 -.01361753  00000+0 -85116-2 0  9993
2 59417  43.0037  52.9880 0001655 258.5423 268.4036 15.78528853  2422
STARLINK-31414          
1 59418U 24064W   24105.50001157 -.01369651  00000+0 -85637-2 0  9997
2 59418  43.0029  52.9831 0001592 263.7533 265.2402 15.78537905  2633
STARLINK-31415          
1 59419U 24064X   24105.50001157 -.01383819  00000+0 -86642-2 0  9997
2 59419  43.0037  52.9775 0001751 270.9346 260.2329 15.78533692  2631
STARLINK-31466          
1 59420U 24064Y   24105.50001157 -.01389309  00000+0 -86947-2 0  9997
2 59420  43.0038  52.9725 0001673 270.4554 262.6570 15.78555035  2637
STARLINK-11087 [DTC]    
1 59421U 24065A   24104.91667824  .00001709  00000+0  17749-4 0  9990
2 59421  53.1645 288.4450 0000919  98.8602 149.8273 15.71447772  2269
STARLINK-11090 [DTC]    
1 59422U 24065B   24105.50001157 -.00109480  00000+0 -84317-3 0  9999
2 59422  53.1691 285.5320 0001079 112.9573 212.5513 15.71547257  2363
STARLINK-11093 [DTC]    
1 59423U 24065C   24105.25001157 -.00436403  00000+0 -34033-2 0  9999
2 59423  53.1732 286.7408 0000831  53.8921 310.1627 15.72262393  2317
STARLINK-11083 [DTC]    
1 59424U 24065D   24105.25001157 -.00390615  00000+0 -29241-2 0  9999
2 59424  53.1745 286.7203 0000856  49.5656 324.6571 15.73088167  2267
STARLINK-11085 [DTC]    
1 59425U 24065E   24105.83334491 -.00357114  00000+0 -26421-2 0  9998
2 59425  53.1748 283.8134 0000952  57.7031  31.5635 15.73265886  2357
STARLINK-11089 [DTC]    
1 59426U 24065F   24105.83334491  .00184354  00000+0  10173-2 0  9998
2 59426  53.1746 283.7146 0007044 292.1567 205.4807 15.78580608  2402
STARLINK-31757          
1 59427U 24065G   24105.83334491 -.01499311  00000+0 -18876-1 0  9991
2 59427  53.1647 283.9907 0000952  73.6077 286.5622 15.62006987  2411
STARLINK-31752          
1 59428U 24065H   24105.83334491 -.01513193  00000+0 -19031-1 0  9991
2 59428  53.1676 283.9887 0000780  89.9828 272.1109 15.62063246  2416
STARLINK-31773          
1 59429U 24065J   24105.83334491 -.01505151  00000+0 -18814-1 0  9995
2 59429  53.1662 283.9843 0001068  78.1675 285.5195 15.62200680  2412
STARLINK-31772          
1 59430U 24065K   24105.83334491 -.01503732  00000+0 -18719-1 0  9994
2 59430  53.1639 283.9806 0000952  80.5665 284.8329 15.62303612  2414
STARLINK-31613          
1 59431U 24065L   24105.83334491 -.01503101  00000+0 -18634-1 0  9991
2 59431  53.1648 283.9767 0000911  86.1850 280.9122 15.62407779  2411
STARLINK-31780          
1 59432U 24065M   24105.83334491 -.01504796  00000+0 -18597-1 0  9991
2 59432  53.1641 283.9732 0000832  76.1234 292.7449 15.62491006  2413
STARLINK-31740          
1 59433U 24065N   24105.83334491 -.01500351  00000+0 -18464-1 0  9998
2 59433  53.1651 283.9704 0000950  73.9899 296.5668 15.62588133  2410
STARLINK-31580          
1 59434U 24065P   24105.83334491 -.01509511  00000+0 -18540-1 0  9991
2 59434  53.1654 283.9659 0000802  80.1923 292.1969 15.62658112  2418
STARLINK-31696          
1 59435U 24065Q   24105.83334491 -.01503582  00000+0 -18366-1 0  9990
2 59435  53.1641 283.9630 0000882  85.6206 288.3120 15.62784686  2418
STARLINK-31700          
1 59436U 24065R   24105.83334491 -.01496891  00000+0 -18189-1 0  9998
2 59436  53.1644 283.9601 0000902  84.2524 291.2296 15.62903366  2416
STARLINK-31706          
1 59437U 24065S   24105.83334491 -.01494700  00000+0 -18087-1 0  9993
2 59437  53.1648 283.9570 0000923  80.3073 296.8072 15.63004014  2411
STARLINK-31711          
1 59438U 24065T   24105.83334491 -.01497905  00000+0 -18068-1 0  9993
2 59438  53.1651 283.9534 0000935  80.7611 298.0585 15.63091069  2410
STARLINK-31708          
1 59439U 24065U   24105.83334491 -.01510599  00000+0 -18136-1 0  9995
2 59439  53.1650 283.9465 0001024  71.8275 310.5609 15.63233917  2417
STARLINK-31682          
1 59440U 24065V   24105.83334491  .00029628  00000+0  21479-3 0  9998
2 59440  53.1734 283.8392 0001575 322.8982 113.4197 15.73196842  2413
STARLINK-31693          
1 59441U 24065W   24105.83334491 -.01501269  00000+0 -17918-1 0  9999
2 59441  53.1656 283.9442 0000878  83.7023 300.0959 15.63365369  2419
2024-066A               
1 59442U 24066A   24105.19394446  .00003543  00000+0  37005-3 0  9996
2 59442  45.6105  42.6746 0004179 135.1815 224.9402 14.91519013   929
2024-066B               
1 59443U 24066B   24104.32234951  .00002327  00000+0  24885-3 0  9996
2 59443  45.6116  47.1176 0003538 143.0888 217.0234 14.91756764   792
2024-066C               
1 59444U 24066C   24103.25056993  .00003007  00000+0  31456-3 0  9994
2 59444  45.6094  52.5849 0004086 146.4536 213.6601 14.91873507   628
2024-066D               
1 59445U 24066D   24105.79584426  .00006296  00000+0  63731-3 0  9997
2 59445  45.6109  39.5904 0003806 150.6215 209.4878 14.91736242  1009
2024-066E               
1 59446U 24066E   24104.25483668  .00002094  00000+0  22524-3 0  9991
2 59446  45.6114  47.4576 0003156 152.2970 207.8077 14.91901767   775
2024-066F               
1 59447U 24066F   24105.32580351  .00007040  00000+0  70478-3 0  9995
2 59447  45.6110  41.9787 0003294 166.2723 193.8245 14.92036350   936
2024-066G               
1 59448U 24066G   24105.79563958  .00005347  00000+0  54398-3 0  9992
2 59448  45.6111  39.5892 0003755 153.8182 206.2886 14.91776971  1009
2024-066H               
1 59449U 24066H   24105.19170885  .00002399  00000+0  25406-3 0  9992
2 59449  45.6093  42.6561 0003819 171.4238 188.6706 14.92052246   912
2024-066J               
1 59450U 24066J   24105.79519191  .00002704  00000+0  28504-3 0  9999
2 59450  45.6118  39.5878 0003414 158.6241 201.4780 14.91862850  1006
2024-066K               
1 59451U 24066K   24102.57970648  .00005052  00000+0  50792-3 0  9994
2 59451  45.6066  55.9971 0004292 173.2425 186.8512 14.92346795   539
425SAT-1                
1 59452U 24066L   24105.29511569  .00009118  00000+0  75304-3 0  9993
2 59452  45.4151  41.1738 0005694  10.5143 349.5853 14.99312054   936
GAGARINETS              
1 59480U 24069B   24105.98815972  .01711572  11289-4  14408-2 0  9996
2 59480  51.7185 353.7940 0159657  30.8475 166.0554 15.91655919   576
WSF-M                   
1 59481U 24070A   24103.72280781 -.00000044  00000+0  00000+0 0  9992
2 59481  98.7189 111.4766 0006020  94.8649  16.5271 14.20447089   152
2024-069C               
1 59482U 24069C   24105.97635417  .03881097  11662-4  22640-2 0  9995
2 59482  51.7103 353.7419 0128095  29.7561 158.8176 16.02056199   571
CURTIS                  
1 59483U 98067WF  24103.92013684  .00060617  00000+0  10269-2 0  9991
2 59483  51.6372 279.0122 0003914  98.7836 261.3597 15.50943166   302
1998-067WG              
1 59507U 98067WG  24104.04885101  .00048537  00000+0  82192-3 0  9995
2 59507  51.6374 278.3723 0003426 110.1548 249.9810 15.51052407   330
1998-067WH              
1 59508U 98067WH  24103.98454405  .00061205  00000+0  10354-2 0  9994
2 59508  51.6371 278.6926 0003950 102.0756 258.0676 15.50978607   327
NOAA 1 [-]              
1 04793U 70106A   24105.75914222 -.00000033  00000+0  61461-4 0  9999
2 04793 101.4525 160.0677 0032067 101.3168   7.8758 12.54026095441725
NOAA 2 (ITOS-D) [-]     
1 06235U 72082A   24105.85726086 -.00000020  00000+0  16420-3 0  9997
2 06235 102.0159 104.1015 0003691 238.4153 184.1071 12.53177638355809
NOAA 3 [-]              
1 06920U 73086A   24105.88819184 -.00000023  00000+0  17211-3 0  9990
2 06920 102.2758 101.3324 0006780 139.7542 279.1713 12.40365902283735
NOAA 4 [-]              
1 07529U 74089A   24105.83418760 -.00000029  00000+0  11099-3 0  9994
2 07529 101.9869  99.5167 0008571 269.3439 154.5173 12.53178392260390
NOAA 5 [-]              
1 09057U 76077A   24105.52090413 -.00000016  00000+0  22759-3 0  9999
2 09057 102.2028  79.0715 0009776 354.8740 119.0240 12.37798368156505
TIROS N [-]             
1 11060U 78096A   24105.73870100  .00000278  00000+0  15414-3 0  9990
2 11060  98.5395 148.4832 0010835  25.6070 334.5641 14.18768886566455
NOAA 6 [-]              
1 11416U 79057A   24105.08130941  .00000513  00000+0  19786-3 0  9991
2 11416  98.6345 126.3706 0011364  90.8413 269.4074 14.34424359337278
NOAA 7 [-]              
1 12553U 81059A   24104.74801794  .00000067  00000+0  55207-4 0  9995
2 12553  98.8996 163.9935 0011766  23.7395 336.4320 14.17503346212182
NOAA 8 [-]              
1 13923U 83022A   24104.87680182  .00000268  00000+0  12302-3 0  9990
2 13923  98.7307 104.7270 0016022  63.4132 296.8689 14.29193184137589
NOAA 9 [-]              
1 15427U 84123A   24105.88721236  .00000304  00000+0  17561-3 0  9995
2 15427  99.1178 101.7767 0015816  76.5370 346.2414 14.16548922 31329
NOAA 10 [-]             
1 16969U 86073A   24105.55140420  .00000308  00000+0  14029-3 0  9997
2 16969  98.6384  92.0945 0012559 153.4719 318.1524 14.28568491956329
NOAA 11 [-]             
1 19531U 88089A   24105.88309953  .00000187  00000+0  11671-3 0  9993
2 19531  98.5125  71.2605 0012156  59.8099 300.4278 14.15508818835480
